[{"OBJECT_NAME":"COSMOS 2493 (SKRL-756 1)","OBJECT_ID":"2013-078A","EPOCH":"2026-03-09T21:08:46.717728","MEAN_MOTION":15.01584319,"ECCENTRICITY":0.00118545,"INCLINATION":82.4165,"RA_OF_ASC_NODE":358.3033,"ARG_OF_PERICENTER":214.7485,"MEAN_ANOMALY":145.2966,"EPHEMERIS_TYPE":0,"CLASSIFICATION_TYPE":"U","NORAD_CAT_ID":39490,"ELEMENT_SET_NO":999,"REV_AT_EPOCH":66305,"BSTAR":0.00040276291,"MEAN_MOTION_DOT":5.252e-5,"MEAN_MOTION_DDOT":0},{"OBJECT_NAME":"STARLINK-6260","OBJECT_ID":"2023-061AU","EPOCH":"2026-03-08T13:59:33.624384","MEAN_MOTION":15.02527641,"ECCENTRICITY":0.0001585,"INCLINATION":43.0055,"RA_OF_ASC_NODE":177.8685,"ARG_OF_PERICENTER":278.7098,"MEAN_ANOMALY":81.3565,"EPHEMERIS_TYPE":0,"CLASSIFICATION_TYPE":"U","NORAD_CAT_ID":56416,"ELEMENT_SET_NO":999,"REV_AT_EPOCH":15688,"BSTAR":0.00011443709,"MEAN_MOTION_DOT":1.342e-5,"MEAN_MOTION_DDOT":0}]
